ONEWEB-0171             
1 48070U 21025AE  25230.97412220 -.00000253  00000+0 -72866-3 0  9991
2 48070  87.8991  20.2833 0001671  91.8209 268.3111 13.13469325213943
ONEWEB-0172             
1 48071U 21025AF  25230.95379639  .00000226  00000+0  58349-3 0  9994
2 48071  87.8995  20.2545 0001587  93.0977 267.0334 13.13470728214831
ONEWEB-0174             
1 48072U 21025AG  25230.85902584  .00000252  00000+0  65613-3 0  9996
2 48072  87.8991  20.2869 0001750 100.2504 259.8822 13.13471116214143
ONEWEB-0175             
1 48073U 21025AH  25230.96565518 -.00000080  00000+0 -25533-3 0  9999
2 48073  87.8992  20.2300 0001636  83.7712 276.3604 13.13468375213812
ONEWEB-0177             
1 48074U 21025AJ  25230.90131738 -.00000273  00000+0 -78119-3 0  9999
2 48074  87.8995  20.2584 0001660 101.3255 258.8061 13.13469798213997
ONEWEB-0178             
1 48075U 21025AK  25230.92006143 -.00000155  00000+0 -46057-3 0  9998
2 48075  87.8999  20.3007 0001478  91.3798 268.7501 13.13472187214042
ONEWEB-0108             
1 48076U 21025AL  25230.95549891  .00000161  00000+0  40654-3 0  9996
2 48076  87.8992  20.2410 0001995  97.2083 262.9273 13.13469725213987
ONEWEB-0169             
1 48077U 21025AM  25230.91147918 -.00000232  00000+0 -66920-3 0  9992
2 48077  87.8994  20.2722 0001991  97.7693 262.3663 13.13470916213862
ONEWEB-0176             
1 48210U 21031A   25230.83915140 -.00000051  00000+0 -17333-3 0  9992
2 48210  87.9079 349.8760 0001710  96.5177 263.6147 13.14502303208593
ONEWEB-0184             
1 48211U 21031B   25230.88830186 -.00000217  00000+0 -62082-3 0  9999
2 48211  87.9089 349.8359 0001340  71.2968 288.8307 13.14503014208571
ONEWEB-0179             
1 48212U 21031C   25230.85896550  .00000236  00000+0  60123-3 0  9997
2 48212  87.9084 349.8596 0001800 102.2476 257.8856 13.14503654208610
ONEWEB-0180             
1 48213U 21031D   25230.89148499 -.00000242  00000+0 -68844-3 0  9991
2 48213  87.9089 349.8406 0001523 102.8225 257.3075 13.14503058208500
ONEWEB-0218             
1 48214U 21031E   25230.83755780 -.00000047  00000+0 -16173-3 0  9994
2 48214  87.9087 349.8523 0001090  75.9725 284.1526 13.14501527208657
ONEWEB-0209             
1 48215U 21031F   25230.59810415 -.00000161  00000+0 -46768-3 0  9995
2 48215  87.9086 349.9440 0001739 103.8703 256.2620 13.14501835208627
ONEWEB-0198             
1 48216U 21031G   25230.58225685 -.00000106  00000+0 -31982-3 0  9995
2 48216  87.9083 349.9472 0001370 100.0442 260.0842 13.14503871208733
ONEWEB-0189             
1 48217U 21031H   25230.89941287 -.00000111  00000+0 -33375-3 0  9997
2 48217  87.9082 349.8582 0001427  99.8134 260.3157 13.14504039208515
ONEWEB-0196             
1 48218U 21031J   25230.87721378 -.00000043  00000+0 -15015-3 0  9998
2 48218  87.9089 349.8758 0001668 101.0532 259.0785 13.14503464208505
