[{"OBJECT_NAME":"ONEWEB-0171","OBJECT_ID":"2021-025AE","EPOCH":"2025-08-18T23:22:44.158080","MEAN_MOTION":13.13469325,"ECCENTRICITY":0.0001671,"INCLINATION":87.8991,"RA_OF_ASC_NODE":20.2833,"ARG_OF_PERICENTER":91.8209,"MEAN_ANOMALY":268.3111,"EPHEMERIS_TYPE":0,"CLASSIFICATION_TYPE":"U","NORAD_CAT_ID":48070,"ELEMENT_SET_NO":999,"REV_AT_EPOCH":21394,"BSTAR":-0.00072866,"MEAN_MOTION_DOT":-2.53e-6,"MEAN_MOTION_DDOT":0},{"OBJECT_NAME":"ONEWEB-0172","OBJECT_ID":"2021-025AF","EPOCH":"2025-08-18T22:53:28.008096","MEAN_MOTION":13.13470728,"ECCENTRICITY":0.0001587,"INCLINATION":87.8995,"RA_OF_ASC_NODE":20.2545,"ARG_OF_PERICENTER":93.0977,"MEAN_ANOMALY":267.0334,"EPHEMERIS_TYPE":0,"CLASSIFICATION_TYPE":"U","NORAD_CAT_ID":48071,"ELEMENT_SET_NO":999,"REV_AT_EPOCH":21483,"BSTAR":0.00058349,"MEAN_MOTION_DOT":2.26e-6,"MEAN_MOTION_DDOT":0},{"OBJECT_NAME":"ONEWEB-0174","OBJECT_ID":"2021-025AG","EPOCH":"2025-08-18T20:36:59.832576","MEAN_MOTION":13.13471116,"ECCENTRICITY":0.000175,"INCLINATION":87.8991,"RA_OF_ASC_NODE":20.2869,"ARG_OF_PERICENTER":100.2504,"MEAN_ANOMALY":259.8822,"EPHEMERIS_TYPE":0,"CLASSIFICATION_TYPE":"U","NORAD_CAT_ID":48072,"ELEMENT_SET_NO":999,"REV_AT_EPOCH":21414,"BSTAR":0.00065613,"MEAN_MOTION_DOT":2.52e-6,"MEAN_MOTION_DDOT":0},{"OBJECT_NAME":"ONEWEB-0175","OBJECT_ID":"2021-025AH","EPOCH":"2025-08-18T23:10:32.607552","MEAN_MOTION":13.13468375,"ECCENTRICITY":0.0001636,"INCLINATION":87.8992,"RA_OF_ASC_NODE":20.23,"ARG_OF_PERICENTER":83.7712,"MEAN_ANOMALY":276.3604,"EPHEMERIS_TYPE":0,"CLASSIFICATION_TYPE":"U","NORAD_CAT_ID":48073,"ELEMENT_SET_NO":999,"REV_AT_EPOCH":21381,"BSTAR":-0.00025533,"MEAN_MOTION_DOT":-8.0e-7,"MEAN_MOTION_DDOT":0},{"OBJECT_NAME":"ONEWEB-0177","OBJECT_ID":"2021-025AJ","EPOCH":"2025-08-18T21:37:53.821632","MEAN_MOTION":13.13469798,"ECCENTRICITY":0.000166,"INCLINATION":87.8995,"RA_OF_ASC_NODE":20.2584,"ARG_OF_PERICENTER":101.3255,"MEAN_ANOMALY":258.8061,"EPHEMERIS_TYPE":0,"CLASSIFICATION_TYPE":"U","NORAD_CAT_ID":48074,"ELEMENT_SET_NO":999,"REV_AT_EPOCH":21399,"BSTAR":-0.00078119,"MEAN_MOTION_DOT":-2.73e-6,"MEAN_MOTION_DDOT":0},{"OBJECT_NAME":"ONEWEB-0178","OBJECT_ID":"2021-025AK","EPOCH":"2025-08-18T22:04:53.307552","MEAN_MOTION":13.13472187,"ECCENTRICITY":0.0001478,"INCLINATION":87.8999,"RA_OF_ASC_NODE":20.3007,"ARG_OF_PERICENTER":91.3798,"MEAN_ANOMALY":268.7501,"EPHEMERIS_TYPE":0,"CLASSIFICATION_TYPE":"U","NORAD_CAT_ID":48075,"ELEMENT_SET_NO":999,"REV_AT_EPOCH":21404,"BSTAR":-0.00046057,"MEAN_MOTION_DOT":-1.55e-6,"MEAN_MOTION_DDOT":0},{"OBJECT_NAME":"ONEWEB-0108","OBJECT_ID":"2021-025AL","EPOCH":"2025-08-18T22:55:55.105824","MEAN_MOTION":13.13469725,"ECCENTRICITY":0.0001995,"INCLINATION":87.8992,"RA_OF_ASC_NODE":20.241,"ARG_OF_PERICENTER":97.2083,"MEAN_ANOMALY":262.9273,"EPHEMERIS_TYPE":0,"CLASSIFICATION_TYPE":"U","NORAD_CAT_ID":48076,"ELEMENT_SET_NO":999,"REV_AT_EPOCH":21398,"BSTAR":0.00040654,"MEAN_MOTION_DOT":1.61e-6,"MEAN_MOTION_DDOT":0},{"OBJECT_NAME":"ONEWEB-0169","OBJECT_ID":"2021-025AM","EPOCH":"2025-08-18T21:52:31.801152","MEAN_MOTION":13.13470916,"ECCENTRICITY":0.0001991,"INCLINATION":87.8994,"RA_OF_ASC_NODE":20.2722,"ARG_OF_PERICENTER":97.7693,"MEAN_ANOMALY":262.3663,"EPHEMERIS_TYPE":0,"CLASSIFICATION_TYPE":"U","NORAD_CAT_ID":48077,"ELEMENT_SET_NO":999,"REV_AT_EPOCH":21386,"BSTAR":-0.0006692,"MEAN_MOTION_DOT":-2.32e-6,"MEAN_MOTION_DDOT":0},{"OBJECT_NAME":"ONEWEB-0176","OBJECT_ID":"2021-031A","EPOCH":"2025-08-18T20:08:22.680960","MEAN_MOTION":13.14502303,"ECCENTRICITY":0.000171,"INCLINATION":87.9079,"RA_OF_ASC_NODE":349.876,"ARG_OF_PERICENTER":96.5177,"MEAN_ANOMALY":263.6147,"EPHEMERIS_TYPE":0,"CLASSIFICATION_TYPE":"U","NORAD_CAT_ID":48210,"ELEMENT_SET_NO":999,"REV_AT_EPOCH":20859,"BSTAR":-0.00017333,"MEAN_MOTION_DOT":-5.1e-7,"MEAN_MOTION_DDOT":0},{"OBJECT_NAME":"ONEWEB-0184","OBJECT_ID":"2021-031B","EPOCH":"2025-08-18T21:19:09.280704","MEAN_MOTION":13.14503014,"ECCENTRICITY":0.000134,"INCLINATION":87.9089,"RA_OF_ASC_NODE":349.8359,"ARG_OF_PERICENTER":71.2968,"MEAN_ANOMALY":288.8307,"EPHEMERIS_TYPE":0,"CLASSIFICATION_TYPE":"U","NORAD_CAT_ID":48211,"ELEMENT_SET_NO":999,"REV_AT_EPOCH":20857,"BSTAR":-0.00062082,"MEAN_MOTION_DOT":-2.17e-6,"MEAN_MOTION_DDOT":0},{"OBJECT_NAME":"ONEWEB-0179","OBJECT_ID":"2021-031C","EPOCH":"2025-08-18T20:36:54.619200","MEAN_MOTION":13.14503654,"ECCENTRICITY":0.00018,"INCLINATION":87.9084,"RA_OF_ASC_NODE":349.8596,"ARG_OF_PERICENTER":102.2476,"MEAN_ANOMALY":257.8856,"EPHEMERIS_TYPE":0,"CLASSIFICATION_TYPE":"U","NORAD_CAT_ID":48212,"ELEMENT_SET_NO":999,"REV_AT_EPOCH":20861,"BSTAR":0.00060123,"MEAN_MOTION_DOT":2.36e-6,"MEAN_MOTION_DDOT":0},{"OBJECT_NAME":"ONEWEB-0180","OBJECT_ID":"2021-031D","EPOCH":"2025-08-18T21:23:44.303136","MEAN_MOTION":13.14503058,"ECCENTRICITY":0.0001523,"INCLINATION":87.9089,"RA_OF_ASC_NODE":349.8406,"ARG_OF_PERICENTER":102.8225,"MEAN_ANOMALY":257.3075,"EPHEMERIS_TYPE":0,"CLASSIFICATION_TYPE":"U","NORAD_CAT_ID":48213,"ELEMENT_SET_NO":999,"REV_AT_EPOCH":20850,"BSTAR":-0.00068844,"MEAN_MOTION_DOT":-2.42e-6,"MEAN_MOTION_DDOT":0},{"OBJECT_NAME":"ONEWEB-0218","OBJECT_ID":"2021-031E","EPOCH":"2025-08-18T20:06:04.993920","MEAN_MOTION":13.14501527,"ECCENTRICITY":0.000109,"INCLINATION":87.9087,"RA_OF_ASC_NODE":349.8523,"ARG_OF_PERICENTER":75.9725,"MEAN_ANOMALY":284.1526,"EPHEMERIS_TYPE":0,"CLASSIFICATION_TYPE":"U","NORAD_CAT_ID":48214,"ELEMENT_SET_NO":999,"REV_AT_EPOCH":20865,"BSTAR":-0.00016173,"MEAN_MOTION_DOT":-4.7e-7,"MEAN_MOTION_DDOT":0},{"OBJECT_NAME":"ONEWEB-0209","OBJECT_ID":"2021-031F","EPOCH":"2025-08-18T14:21:16.198560","MEAN_MOTION":13.14501835,"ECCENTRICITY":0.0001739,"INCLINATION":87.9086,"RA_OF_ASC_NODE":349.944,"ARG_OF_PERICENTER":103.8703,"MEAN_ANOMALY":256.262,"EPHEMERIS_TYPE":0,"CLASSIFICATION_TYPE":"U","NORAD_CAT_ID":48215,"ELEMENT_SET_NO":999,"REV_AT_EPOCH":20862,"BSTAR":-0.00046768,"MEAN_MOTION_DOT":-1.61e-6,"MEAN_MOTION_DDOT":0},{"OBJECT_NAME":"ONEWEB-0198","OBJECT_ID":"2021-031G","EPOCH":"2025-08-18T13:58:26.991840","MEAN_MOTION":13.14503871,"ECCENTRICITY":0.000137,"INCLINATION":87.9083,"RA_OF_ASC_NODE":349.9472,"ARG_OF_PERICENTER":100.0442,"MEAN_ANOMALY":260.0842,"EPHEMERIS_TYPE":0,"CLASSIFICATION_TYPE":"U","NORAD_CAT_ID":48216,"ELEMENT_SET_NO":999,"REV_AT_EPOCH":20873,"BSTAR":-0.00031982,"MEAN_MOTION_DOT":-1.06e-6,"MEAN_MOTION_DDOT":0},{"OBJECT_NAME":"ONEWEB-0189","OBJECT_ID":"2021-031H","EPOCH":"2025-08-18T21:35:09.271968","MEAN_MOTION":13.14504039,"ECCENTRICITY":0.0001427,"INCLINATION":87.9082,"RA_OF_ASC_NODE":349.8582,"ARG_OF_PERICENTER":99.8134,"MEAN_ANOMALY":260.3157,"EPHEMERIS_TYPE":0,"CLASSIFICATION_TYPE":"U","NORAD_CAT_ID":48217,"ELEMENT_SET_NO":999,"REV_AT_EPOCH":20851,"BSTAR":-0.00033375,"MEAN_MOTION_DOT":-1.11e-6,"MEAN_MOTION_DDOT":0},{"OBJECT_NAME":"ONEWEB-0196","OBJECT_ID":"2021-031J","EPOCH":"2025-08-18T21:03:11.270592","MEAN_MOTION":13.14503464,"ECCENTRICITY":0.0001668,"INCLINATION":87.9089,"RA_OF_ASC_NODE":349.8758,"ARG_OF_PERICENTER":101.0532,"MEAN_ANOMALY":259.0785,"EPHEMERIS_TYPE":0,"CLASSIFICATION_TYPE":"U","NORAD_CAT_ID":48218,"ELEMENT_SET_NO":999,"REV_AT_EPOCH":20850,"BSTAR":-0.00015015,"MEAN_MOTION_DOT":-4.3e-7,"MEAN_MOTION_DDOT":0}]
